[{"OBJECT_NAME":"STARLINK-2084","OBJECT_ID":"2021-005V","EPOCH":"2026-03-10T00:00:02.999808","MEAN_MOTION":15.1207585,"ECCENTRICITY":2.582e-5,"INCLINATION":53.0759,"RA_OF_ASC_NODE":60.1546,"ARG_OF_PERICENTER":161.2563,"MEAN_ANOMALY":166.4598,"EPHEMERIS_TYPE":0,"CLASSIFICATION_TYPE":"U","NORAD_CAT_ID":47368,"ELEMENT_SET_NO":999,"REV_AT_EPOCH":574,"BSTAR":0.004658,"MEAN_MOTION_DOT":0.00081703,"MEAN_MOTION_DDOT":0},{"OBJECT_NAME":"SHIJIAN-30A (SJ-30A)","OBJECT_ID":"2025-266A","EPOCH":"2026-03-09T22:15:16.108992","MEAN_MOTION":15.15342199,"ECCENTRICITY":0.00113033,"INCLINATION":51.7972,"RA_OF_ASC_NODE":284.3677,"ARG_OF_PERICENTER":291.808,"MEAN_ANOMALY":68.1693,"EPHEMERIS_TYPE":0,"CLASSIFICATION_TYPE":"U","NORAD_CAT_ID":66545,"ELEMENT_SET_NO":999,"REV_AT_EPOCH":1680,"BSTAR":0.00051940463,"MEAN_MOTION_DOT":9.633e-5,"MEAN_MOTION_DDOT":0}]
